SL-14 R/B               
1 17567U 87024B   26068.57136330  .00000557  00000+0  60637-4 0  9999
2 17567  82.5247  92.8750 0016681 260.3480  99.5853 14.86131911 88114
SAOCOM 1A               
1 43641U 18076A   26068.96299391  .00001305  00000+0  17043-3 0  9996
2 43641  97.8895 257.1316 0001338  83.6952 276.4413 14.82173643401404
